Corps du système solaire : Mars (Planet)
Époque : 2022-01-31T05:32:26.132 / +10000 / 1 Jour / UTC
Système de coordonnées (ICRF) : Héliocentre – Écliptique – Astrométrique J2000 – Cartésiennes
Options : INPOP19a
Éphémérides de position
Colonnes :
1: Date (undefined)
2: px (au)
3: py (au)
4: pz (au)
5: Dobs (au)
6: Phase (deg)
7: VMag (mag)
8: vx (au/d)
9: vy (au/d)
10: vz (au/d)
11: RV (km/s)
$$SOE
2460058.7308580093 -1.272094388148   1.06403337076  0.053504273883 1.659293178969 0  0.68 -0.008451293225 -0.009541274195  0.000007338198  0.6250521
2460059.7308580093 -1.280504383579  1.054457764335  0.053509879523 1.659649348608 0  0.68  -0.00836865003 -0.009609867024  0.000003873416  0.6083303
2460060.7308580093  -1.28883149154  1.044813897211   0.05351202135 1.659995852351 0  0.68 -0.008285517779 -0.009677794391      4.10586e-7  0.5915799
2460061.7308580093 -1.297075225249  1.035102436039  0.053510701397 1.660332673958 0  0.68 -0.008201901032 -0.009745053906 -0.000003050131  0.5748019
2460062.7308580093 -1.305235102478   1.02532404985  0.053505921857 1.660659797676 0  0.68  -0.00811780434 -0.009811643193 -0.000006508574   0.557997
2460063.7308580093 -1.313310645549  1.015479410042  0.053497685085 1.660977208224 0  0.68 -0.008033232251 -0.009877559894  -0.00000996458   0.541166
2460064.7308580093 -1.321301381327  1.005569190363  0.053485993597 1.661284890804 0  0.68 -0.007948189305 -0.009942801668 -0.000013417991  0.5243099
2460065.7308580093 -1.329206841213  0.995594066898  0.053470850068 1.661582831091 0  0.69 -0.007862680035 -0.010007366186 -0.000016868646  0.5074293
2460066.7308580093 -1.337026561142  0.985554718051  0.053452257334 1.661871015237 0  0.69 -0.007776708971 -0.010071251136 -0.000020316385  0.4905252
2460067.7308580093 -1.344760081574  0.975451824528  0.053430218389 1.662149429867 0  0.69 -0.007690280638 -0.010134454221 -0.000023761049  0.4735984
2460068.7308580093 -1.352406947489  0.965286069331  0.053404736387  1.66241806208 0  0.69 -0.007603399552 -0.010196973157 -0.000027202481  0.4566496
2460069.7308580093 -1.359966708385  0.955058137734  0.053375814639 1.662676899447 0  0.69 -0.007516070229 -0.010258805676 -0.000030640521  0.4396797
2460070.7308580093 -1.367438918269  0.944768717274  0.053343456616 1.662925930011 0  0.69 -0.007428297177 -0.010319949523 -0.000034075012  0.4226895
2460071.7308580093 -1.374823135659  0.934418497738  0.053307665946 1.663165142283 0  0.69 -0.007340084901 -0.010380402455 -0.000037505796  0.4056799
2460072.7308580093 -1.382118923571  0.924008171147  0.053268446412 1.663394525247 0  0.69 -0.007251437903 -0.010440162243 -0.000040932717  0.3886515
2460073.7308580093 -1.389325849523  0.913538431744  0.053225801957 1.663614068352 0  0.69 -0.007162360679 -0.010499226673 -0.000044355617  0.3716053
2460074.7308580093 -1.396443485527  0.903009975983  0.053179736679 1.663823761517 0  0.69 -0.007072857723 -0.010557593542  -0.00004777434  0.3545421
2460075.7308580093 -1.403471408088  0.892423502514  0.053130254833 1.664023595127 0  0.69 -0.006982933527 -0.010615260657  -0.00005118873  0.3374626
2460076.7308580093 -1.410409198199  0.881779712172  0.053077360828 1.664213560033 0  0.69 -0.006892592576 -0.010672225841 -0.000054598632  0.3203677
2460077.7308580093  -1.41725644134  0.871079307966  0.053021059231 1.664393647551 0  0.69 -0.006801839356 -0.010728486926  -0.00005800389  0.3032581
2460078.7308580093 -1.424012727473  0.860322995065  0.052961354764 1.664563849463 0  0.69  -0.00671067835 -0.010784041758 -0.000061404348  0.2861347
2460079.7308580093 -1.430677651041  0.849511480788  0.052898252301 1.664724158014 0  0.69 -0.006619114037 -0.010838888191 -0.000064799853  0.2689983
2460080.7308580093 -1.437250810969  0.838645474594  0.052831756875 1.664874565913 0  0.69 -0.006527150897 -0.010893024093 -0.000068190249  0.2518497
2460081.7308580093 -1.443731810657  0.827725688069   0.05276187367  1.66501506633 0  0.69 -0.006434793405 -0.010946447341 -0.000071575382  0.2346896
2460082.7308580093 -1.450120257982  0.816752834917  0.052688608026   1.6651456529 0  0.69 -0.006342046038 -0.010999155823 -0.000074955098   0.217519
2460083.7308580093 -1.456415765296  0.805727630949  0.052611965437 1.665266319717 0  0.69 -0.006248913271 -0.011051147437 -0.000078329243  0.2003385
2460084.7308580093 -1.462617949425  0.794650794071  0.052531951549 1.665377061338 0   0.7 -0.006155399577 -0.011102420092 -0.000081697664   0.183149
2460085.7308580093 -1.468726431669   0.78352304428  0.052448572164 1.665477872781 0   0.7  -0.00606150943 -0.011152971706 -0.000085060207  0.1659512
2460086.7308580093 -1.474740837802  0.772345103645  0.052361833236 1.665568749523 0   0.7 -0.005967247305 -0.011202800206  -0.00008841672  0.1487461
2460087.7308580093 -1.480660798072  0.761117696308  0.052271740871 1.665649687501 0   0.7 -0.005872617674 -0.011251903529 -0.000091767048  0.1315343
2460088.7308580093   -1.4864859472  0.749841548465   0.05217830133 1.665720683115 0   0.7 -0.005777625013 -0.011300279623 -0.000095111039  0.1143166
2460089.7308580093 -1.492215924383  0.738517388363  0.052081521025  1.66578173322 0   0.7 -0.005682273797 -0.011347926442 -0.000098448541  0.0970939
2460090.7308580093 -1.497850373292  0.727145946291  0.051981406522 1.665832835132 0   0.7 -0.005586568503  -0.01139484195 -0.000101779401   0.079867
2460091.7308580093  -1.50338894208  0.715727954567  0.051877964539 1.665873986627 0   0.7 -0.005490513608  -0.01144102412 -0.000105103466  0.0626366
2460092.7308580093 -1.508831283373  0.704264147534  0.051771201946 1.665905185938 0   0.7 -0.005394113594 -0.011486470934 -0.000108420585  0.0454036
2460093.7308580093 -1.514177054282  0.692755261549  0.051661125765 1.665926431759 0   0.7 -0.005297372942  -0.01153118038 -0.000111730604  0.0281686
2460094.7308580093 -1.519425916401  0.681202034977  0.051547743171 1.665937723239 0   0.7 -0.005200296138 -0.011575150456 -0.000115033374  0.0109327
2460095.7308580093 -1.524577535809   0.66960520818  0.051431061489  1.66593905999 0   0.7 -0.005102887668 -0.011618379168  -0.00011832874 -0.0063036
2460096.7308580093 -1.529631583075  0.657965523511  0.051311088199 1.665930442078 0   0.7 -0.005005152024 -0.011660864528 -0.000121616552 -0.0235393
2460097.7308580093 -1.534587733261  0.646283725307  0.051187830931  1.66591187003 0   0.7   -0.0049070937 -0.011702604559 -0.000124896657 -0.0407738
2460098.7308580093 -1.539445665923   0.63456055988  0.051061297465  1.66588334483 0   0.7 -0.004808717194 -0.011743597288 -0.000128168905 -0.0580061
2460099.7308580093  -1.54420506512  0.622796775509  0.050931495736 1.665844867922 0   0.7 -0.004710027008 -0.011783840751 -0.000131433143 -0.0752355
2460100.7308580093 -1.548865619413  0.610993122436  0.050798433828 1.665796441208 0   0.7  -0.00461102765 -0.011823332992  -0.00013468922 -0.0924613
2460101.7308580093 -1.553427021874  0.599150352853  0.050662119978 1.665738067047 0   0.7 -0.004511723631 -0.011862072061 -0.000137936985 -0.1096825
2460102.7308580093 -1.557888970087    0.5872692209  0.050522562574 1.665669748259 0   0.7 -0.004412119468 -0.011900056015 -0.000141176285 -0.1268985
2460103.7308580093 -1.562251166159  0.575350482657  0.050379770155 1.665591488121 0   0.7 -0.004312219683 -0.011937282919  -0.00014440697 -0.1441084
2460104.7308580093 -1.566513316719  0.563394896135  0.050233751412 1.665503290369 0   0.7 -0.004212028804 -0.011973750844 -0.000147628888 -0.1613114
2460105.7308580093 -1.570675132927  0.551403221271  0.050084515188 1.665405159199 0   0.7 -0.004111551366 -0.012009457868 -0.000150841888 -0.1785068
2460106.7308580093 -1.574736330482   0.53937621992  0.049932070475 1.665297099264 0  0.69 -0.004010791908 -0.012044402077 -0.000154045817 -0.1956937
2460107.7308580093 -1.578696629627   0.52731465585   0.04977642642  1.66517911568 0  0.69 -0.003909754978 -0.012078581562 -0.000157240526 -0.2128714
2460108.7308580093 -1.582555755153  0.515219294733  0.049617592318 1.665051214018 0  0.69 -0.003808445131 -0.012111994419 -0.000160425863  -0.230039
2460109.7308580093 -1.586313436413  0.503090904142  0.049455577617  1.66491340031 0  0.69 -0.003706866928 -0.012144638755 -0.000163601675 -0.2471957
2460110.7308580093 -1.589969407321  0.490930253542  0.049290391916 1.664765681048 0  0.69 -0.003605024939 -0.012176512679 -0.000166767812 -0.2643409
2460111.7308580093 -1.593523406367  0.478738114283  0.049122044967 1.664608063181 0  0.69  -0.00350292374 -0.012207614309 -0.000169924123 -0.2814735
2460112.7308580093 -1.596975176622  0.466515259598  0.048950546671 1.664440554121 0  0.69 -0.003400567916 -0.012237941765 -0.000173070456  -0.298593
2460113.7308580093 -1.600324465745  0.454262464592  0.048775907081 1.664263161735 0  0.69 -0.003297962063 -0.012267493178 -0.000176206658 -0.3156984
2460114.7308580093 -1.603571025994  0.441980506242  0.048598136403 1.664075894353 0  0.69 -0.003195110781 -0.012296266681  -0.00017933258 -0.3327891
2460115.7308580093 -1.606714614235  0.429670163387  0.048417244994 1.663878760762 0  0.69 -0.003092018684 -0.012324260414 -0.000182448069 -0.3498641
2460116.7308580093  -1.60975499195  0.417332216723  0.048233243361 1.663671770209 0  0.69 -0.002988690394  -0.01235147252 -0.000185552973 -0.3669227
2460117.7308580093 -1.612691925249  0.404967448801  0.048046142166 1.663454932401 0  0.69 -0.002885130541 -0.012377901148  -0.00018864714  -0.383964
2460118.7308580093 -1.615525184877  0.392576644022  0.047855952221 1.663228257506 0  0.69  -0.00278134377 -0.012403544453 -0.000191730418 -0.4009874
2460119.7308580093 -1.618254546231  0.380160588629  0.047662684491 1.662991756154 0  0.69 -0.002677334735 -0.012428400593 -0.000194802654  -0.417992
2460120.7308580093 -1.620879789366  0.367720070704  0.047466350093 1.662745439436 0  0.69 -0.002573108102 -0.012452467731 -0.000197863697  -0.434977
2460121.7308580093 -1.623400699011  0.355255880166  0.047266960299 1.662489318906 0  0.69 -0.002468668552 -0.012475744033 -0.000200913391 -0.4519415
$$EOE
